{
  "type": "FeatureCollection",
  "features": [
    {
      "type": "Feature",
      "properties": {
        "norad_id": 37715,
        "name": "FENGYUN 1C DEB",
        "group": "fengyun-1c-debris",
        "lat": -54.5174228713154,
        "lon": 154.8874123508193,
        "alt_km": 936.2487334170391,
        "timestamp": "2025-12-05T16:54:14.936112+00:00",
        "meta_object_name": "FENGYUN 1C DEB",
        "meta_object_id": "1999-025EMG",
        "meta_epoch": "2025-12-05T07:15:54.457632",
        "meta_mean_motion": 13.95395456,
        "meta_eccentricity": 0.01145095,
        "meta_inclination": 98.9562,
        "meta_ra_of_asc_node": 347.2784,
        "meta_arg_of_pericenter": 132.4059,
        "meta_mean_anomaly": 245.336,
        "meta_ephemeris_type": 0,
        "meta_classification_type": "U",
        "meta_norad_cat_id": 37715,
        "meta_element_set_no": 999,
        "meta_rev_at_epoch": 57700,
        "meta_bstar": 0.0008221947,
        "meta_mean_motion_dot": 1.135e-05,
        "meta_mean_motion_ddot": 0,
        "tle_line1": "1 37715U 99025EMG 25339.30271363  .00001135  00000+0  82219-3 0  9999",
        "tle_line2": "2 37715  98.9562 347.2784 0114509 132.4059 245.3360 13.95395456577005"
      },
      "geometry": {
        "type": "Point",
        "coordinates": [
          154.8874123508193,
          -54.5174228713154
        ]
      }
    },
    {
      "type": "Feature",
      "properties": {
        "norad_id": 37717,
        "name": "FENGYUN 1C DEB",
        "group": "fengyun-1c-debris",
        "lat": -32.55420145716762,
        "lon": -59.67564737128968,
        "alt_km": 630.98565200745,
        "timestamp": "2025-12-05T16:54:14.936121+00:00",
        "meta_object_name": "FENGYUN 1C DEB",
        "meta_object_id": "1999-025EMJ",
        "meta_epoch": "2025-11-28T15:20:52.761120",
        "meta_mean_motion": 14.92855591,
        "meta_eccentricity": 0.00577735,
        "meta_inclination": 98.7244,
        "meta_ra_of_asc_node": 286.8705,
        "meta_arg_of_pericenter": 147.0493,
        "meta_mean_anomaly": 30.278,
        "meta_ephemeris_type": 0,
        "meta_classification_type": "U",
        "meta_norad_cat_id": 37717,
        "meta_element_set_no": 999,
        "meta_rev_at_epoch": 89187,
        "meta_bstar": 0.0023279704,
        "meta_mean_motion_dot": 0.00024912,
        "meta_mean_motion_ddot": 0,
        "tle_line1": "1 37717U 99025EMJ 25332.63949955  .00024912  00000+0  23280-2 0  9999",
        "tle_line2": "2 37717  98.7244 286.8705 0057773 147.0493  30.2780 14.92855591891876"
      },
      "geometry": {
        "type": "Point",
        "coordinates": [
          -59.67564737128968,
          -32.55420145716762
        ]
      }
    },
    {
      "type": "Feature",
      "properties": {
        "norad_id": 37902,
        "name": "FENGYUN 1C DEB",
        "group": "fengyun-1c-debris",
        "lat": -18.701671541490782,
        "lon": 17.847089082465125,
        "alt_km": 1204.7673781306485,
        "timestamp": "2025-12-05T16:54:14.936130+00:00",
        "meta_object_name": "FENGYUN 1C DEB",
        "meta_object_id": "1999-025ENB",
        "meta_epoch": "2025-12-01T14:15:39.156480",
        "meta_mean_motion": 13.52598401,
        "meta_eccentricity": 0.03241848,
        "meta_inclination": 98.684,
        "meta_ra_of_asc_node": 197.2045,
        "meta_arg_of_pericenter": 335.5889,
        "meta_mean_anomaly": 23.0185,
        "meta_ephemeris_type": 0,
        "meta_classification_type": "U",
        "meta_norad_cat_id": 37902,
        "meta_element_set_no": 999,
        "meta_rev_at_epoch": 62826,
        "meta_bstar": 0.0025054803,
        "meta_mean_motion_dot": 2.275e-05,
        "meta_mean_motion_ddot": 0,
        "tle_line1": "1 37902U 99025ENB 25335.59420320  .00002275  00000+0  25055-2 0  9993",
        "tle_line2": "2 37902  98.6840 197.2045 0324184 335.5889  23.0185 13.52598401628260"
      },
      "geometry": {
        "type": "Point",
        "coordinates": [
          17.847089082465125,
          -18.701671541490782
        ]
      }
    },
    {
      "type": "Feature",
      "properties": {
        "norad_id": 37906,
        "name": "FENGYUN 1C DEB",
        "group": "fengyun-1c-debris",
        "lat": -24.26919043474082,
        "lon": -163.92820117842288,
        "alt_km": 1076.830462179223,
        "timestamp": "2025-12-05T16:54:14.936139+00:00",
        "meta_object_name": "FENGYUN 1C DEB",
        "meta_object_id": "1999-025ENF",
        "meta_epoch": "2025-12-01T09:23:46.720608",
        "meta_mean_motion": 13.80764682,
        "meta_eccentricity": 0.01629895,
        "meta_inclination": 99.6032,
        "meta_ra_of_asc_node": 16.0673,
        "meta_arg_of_pericenter": 58.304,
        "meta_mean_anomaly": 318.7787,
        "meta_ephemeris_type": 0,
        "meta_classification_type": "U",
        "meta_norad_cat_id": 37906,
        "meta_element_set_no": 999,
        "meta_rev_at_epoch": 59299,
        "meta_bstar": 0.00066212459,
        "meta_mean_motion_dot": 7.25e-06,
        "meta_mean_motion_ddot": 0,
        "tle_line1": "1 37906U 99025ENF 25335.39151297  .00000725  00000+0  66212-3 0  9998",
        "tle_line2": "2 37906  99.6032  16.0673 0162989  58.3040 318.7787 13.80764682592994"
      },
      "geometry": {
        "type": "Point",
        "coordinates": [
          -163.92820117842288,
          -24.26919043474082
        ]
      }
    },
    {
      "type": "Feature",
      "properties": {
        "norad_id": 37907,
        "name": "FENGYUN 1C DEB",
        "group": "fengyun-1c-debris",
        "lat": 33.638138467511645,
        "lon": -81.43652138416692,
        "alt_km": 787.700887278781,
        "timestamp": "2025-12-05T16:54:14.936148+00:00",
        "meta_object_name": "FENGYUN 1C DEB",
        "meta_object_id": "1999-025ENG",
        "meta_epoch": "2025-11-30T02:55:58.989792",
        "meta_mean_motion": 14.23288046,
        "meta_eccentricity": 0.00636474,
        "meta_inclination": 99.08,
        "meta_ra_of_asc_node": 86.699,
        "meta_arg_of_pericenter": 220.282,
        "meta_mean_anomaly": 139.3633,
        "meta_ephemeris_type": 0,
        "meta_classification_type": "U",
        "meta_norad_cat_id": 37907,
        "meta_element_set_no": 999,
        "meta_rev_at_epoch": 83093,
        "meta_bstar": 0.0031898387,
        "meta_mean_motion_dot": 7.336e-05,
        "meta_mean_motion_ddot": 0,
        "tle_line1": "1 37907U 99025ENG 25334.12221053  .00007336  00000+0  31898-2 0  9993",
        "tle_line2": "2 37907  99.0800  86.6990 0063647 220.2820 139.3633 14.23288046830933"
      },
      "geometry": {
        "type": "Point",
        "coordinates": [
          -81.43652138416692,
          33.638138467511645
        ]
      }
    },
    {
      "type": "Feature",
      "properties": {
        "norad_id": 37908,
        "name": "FENGYUN 1C DEB",
        "group": "fengyun-1c-debris",
        "lat": -47.13444574335967,
        "lon": 21.16688765765495,
        "alt_km": 813.1815762995448,
        "timestamp": "2025-12-05T16:54:14.936157+00:00",
        "meta_object_name": "FENGYUN 1C DEB",
        "meta_object_id": "1999-025ENH",
        "meta_epoch": "2025-12-03T19:59:46.826304",
        "meta_mean_motion": 14.3655677,
        "meta_eccentricity": 0.0074525,
        "meta_inclination": 99.153,
        "meta_ra_of_asc_node": 9.1758,
        "meta_arg_of_pericenter": 183.9556,
        "meta_mean_anomaly": 176.1048,
        "meta_ephemeris_type": 0,
        "meta_classification_type": "U",
        "meta_norad_cat_id": 37908,
        "meta_element_set_no": 999,
        "meta_rev_at_epoch": 63933,
        "meta_bstar": 0.0010068,
        "meta_mean_motion_dot": 3.005e-05,
        "meta_mean_motion_ddot": 0,
        "tle_line1": "1 37908U 99025ENH 25337.83318086  .00003005  00000+0  10068-2 0  9993",
        "tle_line2": "2 37908  99.1530   9.1758 0074525 183.9556 176.1048 14.36556770639331"
      },
      "geometry": {
        "type": "Point",
        "coordinates": [
          21.16688765765495,
          -47.13444574335967
        ]
      }
    },
    {
      "type": "Feature",
      "properties": {
        "norad_id": 37912,
        "name": "FENGYUN 1C DEB",
        "group": "fengyun-1c-debris",
        "lat": -34.361889525159526,
        "lon": 121.74504938368891,
        "alt_km": 908.6089352359504,
        "timestamp": "2025-12-05T16:54:14.936166+00:00",
        "meta_object_name": "FENGYUN 1C DEB",
        "meta_object_id": "1999-025ENM",
        "meta_epoch": "2025-12-03T09:27:10.814688",
        "meta_mean_motion": 14.1135758,
        "meta_eccentricity": 0.00926902,
        "meta_inclination": 99.2295,
        "meta_ra_of_asc_node": 305.7534,
        "meta_arg_of_pericenter": 85.348,
        "meta_mean_anomaly": 275.8269,
        "meta_ephemeris_type": 0,
        "meta_classification_type": "U",
        "meta_norad_cat_id": 37912,
        "meta_element_set_no": 999,
        "meta_rev_at_epoch": 77156,
        "meta_bstar": 0.0030078294,
        "meta_mean_motion_dot": 5.622e-05,
        "meta_mean_motion_ddot": 0,
        "tle_line1": "1 37912U 99025ENM 25337.39387517  .00005622  00000+0  30078-2 0  9994",
        "tle_line2": "2 37912  99.2295 305.7534 0092690  85.3480 275.8269 14.11357580771561"
      },
      "geometry": {
        "type": "Point",
        "coordinates": [
          121.74504938368891,
          -34.361889525159526
        ]
      }
    }
  ]
}